{
  "norad_id": 64300,
  "name": "STARLINK-34376",
  "history": [
    {
      "epoch": "2026-03-28T13:44:23.898912Z",
      "apogee_km": 574.3013452687428,
      "perigee_km": 569.782338985593,
      "latitude_deg": 2.2571507386612696e-05,
      "longitude_deg": 114.89461297538355,
      "height_km": 574.3804315860616,
      "semi_major_axis_km": 6950.178842127168,
      "eccentricity": 0.0003251,
      "inclination_deg": 70.0014,
      "raan_deg": 146.9852,
      "arg_perigee_deg": 272.2624,
      "mean_anomaly_deg": 87.8163,
      "mean_motion_rev_day": 14.98334543
    },
    {
      "epoch": "2026-03-29T04:09:36.450720Z",
      "apogee_km": 574.2916588303278,
      "perigee_km": 569.7712692613122,
      "latitude_deg": 4.084714807546015e-05,
      "longitude_deg": -103.51429433998732,
      "height_km": 574.3839477538103,
      "semi_major_axis_km": 6950.16846404582,
      "eccentricity": 0.0003252,
      "inclination_deg": 70.0014,
      "raan_deg": 145.4708,
      "arg_perigee_deg": 271.9094,
      "mean_anomaly_deg": 88.1693,
      "mean_motion_rev_day": 14.98337899
    },
    {
      "epoch": "2026-03-30T02:35:29.292288Z",
      "apogee_km": 574.3143811991677,
      "perigee_km": 569.7549295897943,
      "latitude_deg": -6.932843422851944e-05,
      "longitude_deg": -83.26222947320653,
      "height_km": 574.3335295212504,
      "semi_major_axis_km": 6950.171655394481,
      "eccentricity": 0.00032801,
      "inclination_deg": 70.0018,
      "raan_deg": 143.1143,
      "arg_perigee_deg": 273.2431,
      "mean_anomaly_deg": 86.8352,
      "mean_motion_rev_day": 14.98336867
    },
    {
      "epoch": "2026-03-30T12:12:17.656416Z",
      "apogee_km": 574.3251685406531,
      "perigee_km": 569.7472284582664,
      "latitude_deg": 1.714476002605319e-05,
      "longitude_deg": 131.13167536341095,
      "height_km": 574.3892677877373,
      "semi_major_axis_km": 6950.173198499459,
      "eccentricity": 0.00032934,
      "inclination_deg": 70.0015,
      "raan_deg": 142.1045,
      "arg_perigee_deg": 271.8719,
      "mean_anomaly_deg": 88.2063,
      "mean_motion_rev_day": 14.98336368
    },
    {
      "epoch": "2026-03-30T20:12:57.973824Z",
      "apogee_km": 574.298346958386,
      "perigee_km": 569.7696155470021,
      "latitude_deg": 1.022582261069548e-05,
      "longitude_deg": 9.792975781248435,
      "height_km": 574.3842199444327,
      "semi_major_axis_km": 6950.170981252694,
      "eccentricity": 0.0003258,
      "inclination_deg": 70.0014,
      "raan_deg": 141.2628,
      "arg_perigee_deg": 271.9629,
      "mean_anomaly_deg": 88.1157,
      "mean_motion_rev_day": 14.98337085
    },
    {
      "epoch": "2026-03-31T07:25:54.313824Z",
      "apogee_km": 574.3371279361236,
      "perigee_km": 569.7380584043312,
      "latitude_deg": -1.4655260620110873e-05,
      "longitude_deg": -160.080592986037,
      "height_km": 574.3766260830456,
      "semi_major_axis_km": 6950.174593170227,
      "eccentricity": 0.00033086,
      "inclination_deg": 70.0015,
      "raan_deg": 140.0846,
      "arg_perigee_deg": 272.2136,
      "mean_anomaly_deg": 87.8644,
      "mean_motion_rev_day": 14.98335917
    },
    {
      "epoch": "2026-04-01T20:16:59.796192Z",
      "apogee_km": 574.3365674521519,
      "perigee_km": 569.7452799157663,
      "latitude_deg": -5.787874130608621e-05,
      "longitude_deg": 1.7615119127658239,
      "height_km": 574.4176643666339,
      "semi_major_axis_km": 6950.177923683959,
      "eccentricity": 0.0003303,
      "inclination_deg": 70.001,
      "raan_deg": 136.213,
      "arg_perigee_deg": 271.275,
      "mean_anomaly_deg": 88.803,
      "mean_motion_rev_day": 14.9833484
    },
    {
      "epoch": "2026-04-02T20:00:01.999008Z",
      "apogee_km": 574.445949476767,
      "perigee_km": 569.6169724300953,
      "latitude_deg": -62.83924823975335,
      "longitude_deg": -42.33825730078744,
      "height_km": 593.2210852401786,
      "semi_major_axis_km": 6950.16846095343,
      "eccentricity": 0.0003474,
      "inclination_deg": 69.9998,
      "raan_deg": 133.7203,
      "arg_perigee_deg": 270.3073,
      "mean_anomaly_deg": 18.6911,
      "mean_motion_rev_day": 14.983379
    },
    {
      "epoch": "2026-04-02T22:00:01.999584Z",
      "apogee_km": 574.5457755442403,
      "perigee_km": 569.705890517831,
      "latitude_deg": 17.266101799145027,
      "longitude_deg": -21.296615483874294,
      "height_km": 574.7817364198023,
      "semi_major_axis_km": 6950.262833031035,
      "eccentricity": 0.00034818,
      "inclination_deg": 69.9998,
      "raan_deg": 133.5101,
      "arg_perigee_deg": 267.9624,
      "mean_anomaly_deg": 110.4141,
      "mean_motion_rev_day": 14.98307383
    },
    {
      "epoch": "2026-04-03T12:20:21.236352Z",
      "apogee_km": 574.2765326225663,
      "perigee_km": 569.7308626006998,
      "latitude_deg": 5.359169212141318e-05,
      "longitude_deg": 115.06877946941151,
      "height_km": 574.4909634293751,
      "semi_major_axis_km": 6950.140697611632,
      "eccentricity": 0.00032702,
      "inclination_deg": 70.0005,
      "raan_deg": 132.0046,
      "arg_perigee_deg": 268.5001,
      "mean_anomaly_deg": 91.5784,
      "mean_motion_rev_day": 14.98346878
    },
    {
      "epoch": "2026-04-04T12:22:22.202400Z",
      "apogee_km": 574.5597310684152,
      "perigee_km": 569.5215472977716,
      "latitude_deg": -1.4555313351938618e-05,
      "longitude_deg": 111.0507041265737,
      "height_km": 574.344168384057,
      "semi_major_axis_km": 6950.177639183094,
      "eccentricity": 0.00036245,
      "inclination_deg": 69.9991,
      "raan_deg": 129.4776,
      "arg_perigee_deg": 272.8314,
      "mean_anomaly_deg": 87.243,
      "mean_motion_rev_day": 14.98334932
    },
    {
      "epoch": "2026-04-05T12:24:23.335200Z",
      "apogee_km": 574.486853622634,
      "perigee_km": 569.5930950114789,
      "latitude_deg": -6.885126415596836e-05,
      "longitude_deg": 107.03593623527735,
      "height_km": 574.3997251242989,
      "semi_major_axis_km": 6950.176974317056,
      "eccentricity": 0.00035206,
      "inclination_deg": 69.9999,
      "raan_deg": 126.9546,
      "arg_perigee_deg": 271.597,
      "mean_anomaly_deg": 88.4785,
      "mean_motion_rev_day": 14.98335147
    },
    {
      "epoch": "2026-04-05T18:48:55.608480Z",
      "apogee_km": 574.512069762085,
      "perigee_km": 569.569103462486,
      "latitude_deg": -7.420035023634332e-07,
      "longitude_deg": 9.964781579788417,
      "height_km": 574.3455725139198,
      "semi_major_axis_km": 6950.177586612285,
      "eccentricity": 0.0003556,
      "inclination_deg": 70.0,
      "raan_deg": 126.2811,
      "arg_perigee_deg": 272.8522,
      "mean_anomaly_deg": 87.223,
      "mean_motion_rev_day": 14.98334949
    },
    {
      "epoch": "2026-04-06T04:25:43.873248Z",
      "apogee_km": 574.4655184725834,
      "perigee_km": 569.5937296757711,
      "latitude_deg": -6.088695032193003e-05,
      "longitude_deg": -135.6408528280699,
      "height_km": 574.3692636702954,
      "semi_major_axis_km": 6950.166624074177,
      "eccentricity": 0.00035048,
      "inclination_deg": 70.0,
      "raan_deg": 125.2714,
      "arg_perigee_deg": 272.0773,
      "mean_anomaly_deg": 87.9984,
      "mean_motion_rev_day": 14.98338494
    },
    {
      "epoch": "2026-04-07T12:28:24.914784Z",
      "apogee_km": 574.4956634941218,
      "perigee_km": 569.5781374525804,
      "latitude_deg": 2.1025339369300175e-05,
      "longitude_deg": 99.0055364229428,
      "height_km": 574.3948975083175,
      "semi_major_axis_km": 6950.173900473351,
      "eccentricity": 0.00035377,
      "inclination_deg": 70.0001,
      "raan_deg": 121.9048,
      "arg_perigee_deg": 271.6307,
      "mean_anomaly_deg": 88.4447,
      "mean_motion_rev_day": 14.98336141
    },
    {
      "epoch": "2026-04-07T18:52:57.244224Z",
      "apogee_km": 574.5009391041986,
      "perigee_km": 569.5871611017765,
      "latitude_deg": -1.5127802989310967e-05,
      "longitude_deg": 1.934209080857495,
      "height_km": 574.3871549294765,
      "semi_major_axis_km": 6950.181050102988,
      "eccentricity": 0.0003535,
      "inclination_deg": 70.0001,
      "raan_deg": 121.2314,
      "arg_perigee_deg": 271.9793,
      "mean_anomaly_deg": 88.0961,
      "mean_motion_rev_day": 14.98333829
    },
    {
      "epoch": "2026-04-08T10:54:18.223776Z",
      "apogee_km": 574.4097791168524,
      "perigee_km": 569.7061651675049,
      "latitude_deg": -2.5085119526444e-05,
      "longitude_deg": 119.25636818836563,
      "height_km": 574.4751483612115,
      "semi_major_axis_km": 6950.194972142178,
      "eccentricity": 0.00033838,
      "inclination_deg": 70.0004,
      "raan_deg": 119.549,
      "arg_perigee_deg": 270.2601,
      "mean_anomaly_deg": 89.817,
      "mean_motion_rev_day": 14.98329327
    },
    {
      "epoch": "2026-04-09T10:56:19.355712Z",
      "apogee_km": 574.5014895669665,
      "perigee_km": 569.608554383497,
      "latitude_deg": 1.5212261153356242e-05,
      "longitude_deg": 115.23913652336108,
      "height_km": 574.4059918587826,
      "semi_major_axis_km": 6950.192021975232,
      "eccentricity": 0.000352,
      "inclination_deg": 70.0004,
      "raan_deg": 117.0235,
      "arg_perigee_deg": 271.8035,
      "mean_anomaly_deg": 88.2721,
      "mean_motion_rev_day": 14.98330281
    },
    {
      "epoch": "2026-04-10T10:58:20.293248Z",
      "apogee_km": 574.5089577384169,
      "perigee_km": 569.5618250302305,
      "latitude_deg": -2.5663736207952492e-05,
      "longitude_deg": 111.22338803041843,
      "height_km": 574.4112557081737,
      "semi_major_axis_km": 6950.172391384323,
      "eccentricity": 0.0003559,
      "inclination_deg": 70.0006,
      "raan_deg": 114.4987,
      "arg_perigee_deg": 271.2084,
      "mean_anomaly_deg": 88.8667,
      "mean_motion_rev_day": 14.98336629
    }
  ]
}